{
  "type": "FeatureCollection",
  "features": [
    {
      "type": "Feature",
      "properties": {
        "norad_id": 44333,
        "name": "AT&T T-16",
        "group": "intelsat",
        "lat": -0.026086221144488567,
        "lon": -62.85932560151335,
        "alt_km": 35787.708347123254,
        "timestamp": "2025-12-04T21:36:15.542472+00:00",
        "meta_object_name": "AT&T T-16",
        "meta_object_id": "2019-034A",
        "meta_epoch": "2025-12-04T08:38:38.724288",
        "meta_mean_motion": 1.0026863,
        "meta_eccentricity": 3.23e-05,
        "meta_inclination": 0.0351,
        "meta_ra_of_asc_node": 77.2721,
        "meta_arg_of_pericenter": 97.2426,
        "meta_mean_anomaly": 287.7127,
        "meta_ephemeris_type": 0,
        "meta_classification_type": "U",
        "meta_norad_cat_id": 44333,
        "meta_element_set_no": 999,
        "meta_rev_at_epoch": 2368,
        "meta_bstar": 0,
        "meta_mean_motion_dot": -1e-06,
        "meta_mean_motion_ddot": 0,
        "tle_line1": "1 44333U 19034A   25338.36017042 -.00000100  00000+0  00000+0 0  9998",
        "tle_line2": "2 44333   0.0351  77.2721 0000323  97.2426 287.7127  1.00268630 23681"
      },
      "geometry": {
        "type": "Point",
        "coordinates": [
          -62.85932560151335,
          -0.026086221144488567
        ]
      }
    },
    {
      "type": "Feature",
      "properties": {
        "norad_id": 44476,
        "name": "INTELSAT 39 (IS-39)",
        "group": "intelsat",
        "lat": 0.03257056642536306,
        "lon": 99.94936343962883,
        "alt_km": 35784.963046332276,
        "timestamp": "2025-12-04T21:36:15.542484+00:00",
        "meta_object_name": "INTELSAT 39 (IS-39)",
        "meta_object_id": "2019-049B",
        "meta_epoch": "2025-12-04T12:18:31.787424",
        "meta_mean_motion": 1.00270541,
        "meta_eccentricity": 6.723e-05,
        "meta_inclination": 0.0172,
        "meta_ra_of_asc_node": 330.3797,
        "meta_arg_of_pericenter": 188.8386,
        "meta_mean_anomaly": 160.9448,
        "meta_ephemeris_type": 0,
        "meta_classification_type": "U",
        "meta_norad_cat_id": 44476,
        "meta_element_set_no": 999,
        "meta_rev_at_epoch": 2317,
        "meta_bstar": 0,
        "meta_mean_motion_dot": 4.8e-07,
        "meta_mean_motion_ddot": 0,
        "tle_line1": "1 44476U 19049B   25338.51286791  .00000048  00000+0  00000+0 0  9998",
        "tle_line2": "2 44476   0.0172 330.3797 0000672 188.8386 160.9448  1.00270541 23171"
      },
      "geometry": {
        "type": "Point",
        "coordinates": [
          99.94936343962883,
          0.03257056642536306
        ]
      }
    },
    {
      "type": "Feature",
      "properties": {
        "norad_id": 46114,
        "name": "GALAXY 30 (G-30)",
        "group": "intelsat",
        "lat": -0.034327248657740596,
        "lon": -86.97336519619944,
        "alt_km": 35776.89133350783,
        "timestamp": "2025-12-04T21:36:15.542495+00:00",
        "meta_object_name": "GALAXY 30 (G-30)",
        "meta_object_id": "2020-056C",
        "meta_epoch": "2025-12-04T14:10:38.723808",
        "meta_mean_motion": 1.00270006,
        "meta_eccentricity": 0.0002489,
        "meta_inclination": 0.0158,
        "meta_ra_of_asc_node": 328.6937,
        "meta_arg_of_pericenter": 280.7734,
        "meta_mean_anomaly": 271.8612,
        "meta_ephemeris_type": 0,
        "meta_classification_type": "U",
        "meta_norad_cat_id": 46114,
        "meta_element_set_no": 999,
        "meta_rev_at_epoch": 1934,
        "meta_bstar": 0,
        "meta_mean_motion_dot": 5.1e-07,
        "meta_mean_motion_ddot": 0,
        "tle_line1": "1 46114U 20056C   25338.59072597  .00000051  00000+0  00000+0 0  9998",
        "tle_line2": "2 46114   0.0158 328.6937 0002489 280.7734 271.8612  1.00270006 19344"
      },
      "geometry": {
        "type": "Point",
        "coordinates": [
          -86.97336519619944,
          -0.034327248657740596
        ]
      }
    },
    {
      "type": "Feature",
      "properties": {
        "norad_id": 54026,
        "name": "GALAXY 33 (G-33)",
        "group": "intelsat",
        "lat": -0.035043857820261,
        "lon": -94.96188477657421,
        "alt_km": 35777.445779606685,
        "timestamp": "2025-12-04T21:36:15.542507+00:00",
        "meta_object_name": "GALAXY 33 (G-33)",
        "meta_object_id": "2022-128A",
        "meta_epoch": "2025-12-04T04:32:00.542688",
        "meta_mean_motion": 1.00272957,
        "meta_eccentricity": 0.00020139,
        "meta_inclination": 0.0134,
        "meta_ra_of_asc_node": 359.762,
        "meta_arg_of_pericenter": 250.3751,
        "meta_mean_anomaly": 118.1476,
        "meta_ephemeris_type": 0,
        "meta_classification_type": "U",
        "meta_norad_cat_id": 54026,
        "meta_element_set_no": 999,
        "meta_rev_at_epoch": 1178,
        "meta_bstar": 0,
        "meta_mean_motion_dot": 9.5e-07,
        "meta_mean_motion_ddot": 0,
        "tle_line1": "1 54026U 22128A   25338.18889517  .00000095  00000+0  00000+0 0  9992",
        "tle_line2": "2 54026   0.0134 359.7620 0002013 250.3751 118.1476  1.00272957 11786"
      },
      "geometry": {
        "type": "Point",
        "coordinates": [
          -94.96188477657421,
          -0.035043857820261
        ]
      }
    },
    {
      "type": "Feature",
      "properties": {
        "norad_id": 54027,
        "name": "GALAXY 34 (G-34)",
        "group": "intelsat",
        "lat": -0.0413672818868762,
        "lon": -90.92306360840566,
        "alt_km": 35781.81146739961,
        "timestamp": "2025-12-04T21:36:15.542518+00:00",
        "meta_object_name": "GALAXY 34 (G-34)",
        "meta_object_id": "2022-128B",
        "meta_epoch": "2025-12-04T14:10:38.723808",
        "meta_mean_motion": 1.00269584,
        "meta_eccentricity": 0.00012851,
        "meta_inclination": 0.0223,
        "meta_ra_of_asc_node": 328.1403,
        "meta_arg_of_pericenter": 274.2387,
        "meta_mean_anomaly": 275.0049,
        "meta_ephemeris_type": 0,
        "meta_classification_type": "U",
        "meta_norad_cat_id": 54027,
        "meta_element_set_no": 999,
        "meta_rev_at_epoch": 1196,
        "meta_bstar": 0,
        "meta_mean_motion_dot": 0,
        "meta_mean_motion_ddot": 0,
        "tle_line1": "1 54027U 22128B   25338.59072597  .00000000  00000+0  00000+0 0  9996",
        "tle_line2": "2 54027   0.0223 328.1403 0001285 274.2387 275.0049  1.00269584 11966"
      },
      "geometry": {
        "type": "Point",
        "coordinates": [
          -90.92306360840566,
          -0.0413672818868762
        ]
      }
    },
    {
      "type": "Feature",
      "properties": {
        "norad_id": 54243,
        "name": "GALAXY 31 (G-31)",
        "group": "intelsat",
        "lat": -0.026597335300915376,
        "lon": -82.98219689629512,
        "alt_km": 35778.0469742418,
        "timestamp": "2025-12-04T21:36:15.542530+00:00",
        "meta_object_name": "GALAXY 31 (G-31)",
        "meta_object_id": "2022-153A",
        "meta_epoch": "2025-12-04T14:02:38.764032",
        "meta_mean_motion": 1.00270474,
        "meta_eccentricity": 0.00020116,
        "meta_inclination": 0.0155,
        "meta_ra_of_asc_node": 30.9903,
        "meta_arg_of_pericenter": 236.2733,
        "meta_mean_anomaly": 256.0574,
        "meta_ephemeris_type": 0,
        "meta_classification_type": "U",
        "meta_norad_cat_id": 54243,
        "meta_element_set_no": 999,
        "meta_rev_at_epoch": 518,
        "meta_bstar": 0,
        "meta_mean_motion_dot": 2.8e-07,
        "meta_mean_motion_ddot": 0,
        "tle_line1": "1 54243U 22153A   25338.58517088  .00000028  00000+0  00000+0 0  9992",
        "tle_line2": "2 54243   0.0155  30.9903 0002011 236.2733 256.0574  1.00270474  5183"
      },
      "geometry": {
        "type": "Point",
        "coordinates": [
          -82.98219689629512,
          -0.026597335300915376
        ]
      }
    },
    {
      "type": "Feature",
      "properties": {
        "norad_id": 54244,
        "name": "GALAXY 32 (G-32)",
        "group": "intelsat",
        "lat": -0.014856347320449608,
        "lon": -52.96369753258049,
        "alt_km": 35773.7245324956,
        "timestamp": "2025-12-04T21:36:15.542541+00:00",
        "meta_object_name": "GALAXY 32 (G-32)",
        "meta_object_id": "2022-153B",
        "meta_epoch": "2025-12-04T06:26:43.019808",
        "meta_mean_motion": 1.00276972,
        "meta_eccentricity": 0.00026447,
        "meta_inclination": 0.0105,
        "meta_ra_of_asc_node": 335.682,
        "meta_arg_of_pericenter": 320.5461,
        "meta_mean_anomaly": 142.8021,
        "meta_ephemeris_type": 0,
        "meta_classification_type": "U",
        "meta_norad_cat_id": 54244,
        "meta_element_set_no": 999,
        "meta_rev_at_epoch": 1119,
        "meta_bstar": 0,
        "meta_mean_motion_dot": -1.59e-06,
        "meta_mean_motion_ddot": 0,
        "tle_line1": "1 54244U 22153B   25338.26855347 -.00000159  00000+0  00000+0 0  9997",
        "tle_line2": "2 54244   0.0105 335.6820 0002644 320.5461 142.8021  1.00276972 11195"
      },
      "geometry": {
        "type": "Point",
        "coordinates": [
          -52.96369753258049,
          -0.014856347320449608
        ]
      }
    }
  ]
}